MEAN_MOTION;ECCENTRICITY;INCLINATION;RA_OF_ASC_NODE;ARG_OF_PERICENTER;MEAN_ANOMALY;BSTAR;MEAN_MOTION_DOT;MEAN_MOTION_DDOT;TYPE
0.99701703;0.0009673;14.8354;352.7383;3.3642;187.999;0;-2.9E-6;0;Intelsat
0.99701519;0.0009657;14.8348;352.7282;3.6666;188.058;0;-3.04E-6;0;Intelsat
0.99701163;0.0009639;14.8337;352.711;4.1099;82.593;0;-3.27E-6;0;Intelsat
0.99700797;0.0009627;14.8329;352.6979;4.384;191.6723;0;-3.42E-6;0;Intelsat
0.99700569;0.0009629;14.8325;352.6912;4.5852;70.615;0;-3.49E-6;0;Intelsat
0.99699785;0.0009633;14.8311;352.6689;4.9605;153.7118;0;-3.64E-6;0;Intelsat
0.99699304;0.0009646;14.8303;352.657;5.2226;221.0478;0;-3.68E-6;0;Intelsat
0.99698919;0.0009653;14.8298;352.6485;5.4174;169.6014;0;-3.69E-6;0;Intelsat
0.99698294;0.0009674;14.8289;352.6355;5.8619;281.4821;0;-3.69E-6;0;Intelsat
0.99697923;0.0009685;14.8284;352.6273;6.1533;216.7189;0;-3.67E-6;0;Intelsat
0.99697572;0.0009696;14.8279;352.62;6.2671;121.2513;0;-3.65E-6;0;Intelsat
0.9969736;0.0009706;14.8276;352.6164;6.5569;253.8389;0;-3.63E-6;0;Intelsat
0.99696972;0.0009716;14.8271;352.6088;6.7739;169.6804;0;-3.59E-6;0;Intelsat
0.99696331;0.0009739;14.8263;352.5964;7.2049;259.1736;0;-3.51E-6;0;Intelsat
0.99695978;0.0009749;14.8258;352.5894;7.4187;153.862;0;-3.45E-6;0;Intelsat
0.99695437;0.0009756;14.8251;352.5792;7.8596;167.3482;0;-3.36E-6;0;Intelsat
0.99694933;0.0009759;14.8245;352.5696;8.256;158.4911;0;-3.26E-6;0;Intelsat
0.99694417;0.0009761;14.8238;352.5597;8.673;158.6493;0;-3.15E-6;0;Intelsat
0.99693965;0.0009743;14.8232;352.5517;9.222;93.7012;0;-3.05E-6;0;Intelsat
0.99693373;0.0009736;14.8224;352.5401;9.8376;158.6261;0;-2.89E-6;0;Intelsat
0.9969269;0.0009723;14.8215;352.527;10.4317;280.6969;0;-2.7E-6;0;Intelsat
0.99692391;0.0009716;14.8211;352.5205;10.7245;158.8411;0;-2.6E-6;0;Intelsat
0.99691792;0.000969;14.8202;352.5082;11.2891;252.3428;0;-2.41E-6;0;Intelsat
0.99691412;0.0009666;14.8197;352.4991;11.6715;218.9486;0;-2.27E-6;0;Intelsat
0.99691063;0.0009643;14.8191;352.4909;11.9726;159.2797;0;-2.13E-6;0;Intelsat
0.99690682;0.0009616;14.8185;352.4814;12.3352;147.0404;0;-1.98E-6;0;Intelsat
0.99690309;0.0009584;14.8178;352.4712;12.705;159.6677;0;-1.82E-6;0;Intelsat
0.99689969;0.0009552;14.8171;352.4613;13.1043;159.8059;0;-1.67E-6;0;Intelsat
0.9968955;0.0009524;14.8163;352.4494;13.3934;231.6845;0;-1.48E-6;0;Intelsat
0.9968934;0.0009501;14.8158;352.4415;13.6328;160.392;0;-1.36E-6;0;Intelsat
0.99689097;0.0009478;14.8152;352.4316;13.8785;160.6695;0;-1.2E-6;0;Intelsat
0.99688813;0.000945;14.8144;352.4187;14.252;270.5359;0;-9.9E-7;0;Intelsat
0.99688713;0.0009438;14.814;352.413;14.3975;117.5656;0;-9.0E-7;0;Intelsat
0.99688526;0.0009425;14.8132;352.4021;14.568;161.6194;0;-7.1E-7;0;Intelsat
0.99688425;0.0009416;14.8126;352.3923;14.7953;161.9385;0;-5.4E-7;0;Intelsat
0.9968835;0.000941;14.8119;352.3825;15.0306;162.2444;0;-3.8E-7;0;Intelsat
0.99688298;0.0009406;14.8112;352.3726;15.2948;168.458;0;-2.0E-7;0;Intelsat
0.99688332;0.0009405;14.8106;352.363;15.5387;162.8311;0;-4.0E-8;0;Intelsat
0.9968839;0.0009418;14.8099;352.353;15.6713;171.8684;0;1.2E-7;0;Intelsat
0.99688397;0.0009413;14.8096;352.3484;15.9953;335.5368;0;1.9E-7;0;Intelsat
0.99688484;0.0009421;14.8092;352.3434;15.9657;163.5074;0;2.6E-7;0;Intelsat
0.99688594;0.0009419;14.8086;352.3335;16.2918;163.7141;0;4.0E-7;0;Intelsat
0.99688625;0.0009419;14.8084;352.3318;16.3635;229.712;0;4.3E-7;0;Intelsat
0.99689229;0.0009409;14.8065;352.3043;17.2951;164.3661;0;7.5E-7;0;Intelsat
0.99689636;0.0009387;14.8054;352.2897;17.8966;344.594;0;8.8E-7;0;Intelsat
0.99690162;0.0009369;14.8044;352.2751;18.4791;164.7645;0;9.8E-7;0;Intelsat
0.99690238;0.0009361;14.8042;352.2732;18.5539;238.396;0;9.9E-7;0;Intelsat
0.99690334;0.000935;14.804;352.2703;18.7336;344.7831;0;1.0E-6;0;Intelsat
0.99690519;0.0009345;14.8037;352.2654;18.947;164.8492;0;1.02E-6;0;Intelsat
0.99690927;0.0009318;14.803;352.2557;19.3644;164.9942;0;1.06E-6;0;Intelsat
0.99691126;0.0009302;14.8026;352.2508;19.5284;345.0918;0;1.06E-6;0;Intelsat
0.99691791;0.0009255;14.8015;352.2362;20.1613;165.3135;0;1.07E-6;0;Intelsat
0.99692241;0.000922;14.8008;352.2264;20.5594;165.4596;0;1.04E-6;0;Intelsat
0.99692694;0.000917;14.8001;352.2167;21.0002;165.5791;0;1.0E-6;0;Intelsat
0.9969341;0.0009112;14.799;352.202;21.4782;345.9475;0;9.1E-7;0;Intelsat
0.99693657;0.0009083;14.7987;352.197;21.6573;166.051;0;8.7E-7;0;Intelsat
0.99694133;0.000904;14.798;352.1873;21.9308;159.2225;0;7.8E-7;0;Intelsat
0.99694381;0.0009024;14.7977;352.1824;22.0427;339.4545;0;7.3E-7;0;Intelsat
0.99694589;0.0008997;14.7973;352.1775;22.1761;156.7745;0;6.8E-7;0;Intelsat
0.99694765;0.0008984;14.7971;352.1743;22.222;275.4121;0;6.4E-7;0;Intelsat
0.99694875;0.0008986;14.797;352.1724;22.2383;346.866;0;6.2E-7;0;Intelsat
0.99695103;0.0008958;14.7966;352.1675;22.3633;167.0519;0;5.7E-7;0;Intelsat
0.99695582;0.0008921;14.796;352.1576;22.5642;167.3961;0;4.5E-7;0;Intelsat
0.99695791;0.0008906;14.7956;352.1532;22.6483;329.3655;0;4.0E-7;0;Intelsat
0.99696439;0.0008859;14.7946;352.139;22.9338;132.6688;0;2.2E-7;0;Intelsat
0.99696683;0.0008848;14.7942;352.1334;22.992;337.8271;0;1.5E-7;0;Intelsat
0.99696932;0.0008832;14.7939;352.1282;23.1102;168.5806;0;9.0E-8;0;Intelsat
0.99697362;0.000881;14.7931;352.1185;23.2864;168.972;0;-3.0E-8;0;Intelsat
0.99697754;0.000879;14.7925;352.1087;23.452;169.404;0;-1.5E-7;0;Intelsat
0.99698138;0.0008775;14.7918;352.0989;23.6397;169.7965;0;-2.7E-7;0;Intelsat
0.99698302;0.0008771;14.7914;352.0944;23.7252;336.7811;0;-3.3E-7;0;Intelsat
0.99698496;0.0008764;14.791;352.0891;23.8445;170.1633;0;-4.0E-7;0;Intelsat
0.99698826;0.0008757;14.7903;352.08;24.0315;144.8573;0;-5.1E-7;0;Intelsat
0.99699271;0.000873;14.7893;352.0654;24.459;323.3605;0;-7.0E-7;0;Intelsat
0.99699444;0.0008729;14.7889;352.0604;24.5651;145.5014;0;-7.6E-7;0;Intelsat
0.99699709;0.0008714;14.7882;352.0506;24.8661;145.796;0;-8.9E-7;0;Intelsat
0.9969984;0.0008698;14.7878;352.0457;25.0604;325.8638;0;-9.5E-7;0;Intelsat
0.99699942;0.0008704;14.7874;352.0408;25.1484;146.0908;0;-1.02E-6;0;Intelsat
0.99700183;0.0008687;14.7867;352.0311;25.4737;146.3704;0;-1.14E-6;0;Intelsat
0.99700402;0.0008665;14.7859;352.0211;25.8389;155.0982;0;-1.27E-6;0;Intelsat
0.99700532;0.0008637;14.7852;352.0115;26.2013;146.8165;0;-1.39E-6;0;Intelsat
0.99700661;0.0008614;14.7845;352.0017;26.5418;147.0531;0;-1.52E-6;0;Intelsat
0.99700716;0.0008588;14.7842;351.9971;26.7283;312.9439;0;-1.58E-6;0;Intelsat
0.99700771;0.0008587;14.7838;351.9918;26.8774;147.2626;0;-1.64E-6;0;Intelsat
0.99700872;0.0008509;14.7823;351.9721;27.5996;147.7378;0;-1.89E-6;0;Intelsat
0.99700907;0.0008459;14.7816;351.9623;27.977;147.9314;0;-2.0E-6;0;Intelsat
0.99700881;0.0008414;14.7808;351.9523;28.2876;148.2027;0;-2.13E-6;0;Intelsat
0.99700859;0.0008356;14.7801;351.9422;28.6346;156.7769;0;-2.25E-6;0;Intelsat
0.99700754;0.0008298;14.7793;351.9325;28.9397;148.7366;0;-2.37E-6;0;Intelsat
0.99700646;0.0008238;14.7786;351.9226;29.2173;149.0377;0;-2.48E-6;0;Intelsat
0.99700581;0.0008215;14.7782;351.9176;29.3189;329.2229;0;-2.54E-6;0;Intelsat
0.99700515;0.0008188;14.7779;351.9128;29.4181;143.3655;0;-2.59E-6;0;Intelsat
0.99700348;0.0008133;14.7771;351.9027;29.6009;149.8477;0;-2.7E-6;0;Intelsat
0.99700248;0.0008111;14.7768;351.8977;29.6809;330.0566;0;-2.75E-6;0;Intelsat
0.99700146;0.0008089;14.7764;351.8928;29.7282;150.2902;0;-2.79E-6;0;Intelsat
0.99700051;0.0008062;14.7761;351.8878;29.819;330.4963;0;-2.83E-6;0;Intelsat
0.99699834;0.0008018;14.7753;351.8779;29.9231;330.9696;0;-2.91E-6;0;Intelsat
0.99699395;0.0007955;14.7743;351.8631;30.0727;151.7256;0;-2.99E-6;0;Intelsat
0.99699257;0.0007941;14.7739;351.8581;30.1038;331.9697;0;-3.01E-6;0;Intelsat
0.99698823;0.0007889;14.7728;351.8433;30.2562;152.6829;0;-3.05E-6;0;Intelsat
0.99698652;0.0007867;14.7724;351.8384;30.3534;332.8778;0;-3.05E-6;0;Intelsat
0.9969847;0.0007856;14.7719;351.8335;30.3763;153.151;0;-3.05E-6;0;Intelsat
0.99698125;0.0007826;14.7711;351.8237;30.523;150.6995;0;-3.05E-6;0;Intelsat
0.99697942;0.0007826;14.7707;351.8182;30.5685;352.2698;0;-3.05E-6;0;Intelsat
0.9969778;0.0007811;14.7704;351.8137;30.6352;154.0603;0;-3.04E-6;0;Intelsat
0.99697407;0.0007782;14.7696;351.8038;30.824;154.4302;0;-3.01E-6;0;Intelsat
0.99697231;0.0007767;14.7692;351.7989;30.9661;334.585;0;-3.0E-6;0;Intelsat
0.9969703;0.0007762;14.7688;351.794;31.0009;154.848;0;-2.98E-6;0;Intelsat
0.99696658;0.0007741;14.768;351.784;31.2025;155.1981;0;-2.94E-6;0;Intelsat
0.99696566;0.0007738;14.7679;351.7818;31.2943;236.8972;0;-2.93E-6;0;Intelsat
0.99696076;0.0007702;14.7669;351.769;31.5994;344.6583;0;-2.86E-6;0;Intelsat
0.99695524;0.0007671;14.7657;351.7544;31.9487;156.17;0;-2.77E-6;0;Intelsat
0.99695325;0.0007644;14.7653;351.7494;32.1426;339.5199;0;-2.74E-6;0;Intelsat
0.99695133;0.0007648;14.7649;351.7446;32.2158;156.4792;0;-2.71E-6;0;Intelsat
0.99694578;0.0007596;14.7638;351.7299;32.6765;334.2153;0;-2.59E-6;0;Intelsat
0.99694399;0.0007581;14.7634;351.7249;32.8386;156.9704;0;-2.55E-6;0;Intelsat
0.99694202;0.000755;14.763;351.7199;33.0094;337.0797;0;-2.51E-6;0;Intelsat
0.9969385;0.000751;14.7622;351.71;33.303;337.33;0;-2.43E-6;0;Intelsat
0.99693682;0.0007493;14.7618;351.705;33.4618;157.4731;0;-2.39E-6;0;Intelsat
0.99693343;0.0007445;14.7611;351.6955;33.7435;143.8265;0;-2.31E-6;0;Intelsat
0.99692982;0.0007391;14.7603;351.6854;34.021;148.8485;0;-2.22E-6;0;Intelsat
0.99692831;0.0007369;14.76;351.6807;34.1151;319.6481;0;-2.18E-6;0;Intelsat
0.99692676;0.0007339;14.7596;351.6759;34.2485;132.6425;0;-2.14E-6;0;Intelsat
0.99692347;0.000728;14.7588;351.6652;34.4595;158.696;0;-2.06E-6;0;Intelsat
0.99692181;0.000726;14.7584;351.6603;34.5306;338.9082;0;-2.02E-6;0;Intelsat
0.99692047;0.0007222;14.7581;351.656;34.6302;133.3981;0;-1.98E-6;0;Intelsat
0.99691896;0.0007196;14.7577;351.6503;34.6895;339.2775;0;-1.93E-6;0;Intelsat
0.99691482;0.0007097;14.7567;351.6359;34.8597;134.2572;0;-1.82E-6;0;Intelsat
0.99691482;0.0007097;14.7567;351.6359;34.8597;134.2572;0;-1.82E-6;0;Intelsat
0.99691237;0.0007047;14.756;351.626;34.9003;134.7863;0;-1.73E-6;0;Intelsat
